IRIDIUM 150             
1 43257U 18030J   25085.51332152  .00000185  00000+0  59157-4 0  9999
2 43257  86.3934 117.6455 0002005  93.7154 266.4271 14.34215370365991
IRIDIUM 143             
1 43258U 18030K   25085.49429687  .00000069  00000+0  17675-4 0  9997
2 43258  86.3936 117.7290 0001823  94.2421 265.8983 14.34214844365923
IRIDIUM 161             
1 43478U 18047C   25085.49973977  .00000426  00000+0  12070-3 0  9995
2 43478  86.4437 275.5229 0003178 106.9296 253.2253 14.43254582360564
IRIDIUM 152             
1 43479U 18047D   25085.53678362 -.00000047  00000+0 -23722-4 0  9999
2 43479  86.3902 275.3673 0002061  88.6329 271.5103 14.34217267358322
IRIDIUM 147             
1 43480U 18047E   25085.54312675 -.00000823  00000+0 -30104-3 0  9997
2 43480  86.3900 275.3618 0002138  91.7255 268.4185 14.34215030358320
IRIDIUM 110             
1 43481U 18047F   25085.54946784  .00000650  00000+0  22509-3 0  9998
2 43481  86.3911 275.4397 0002585  86.8268 273.3223 14.34216542358319
IRIDIUM 162             
1 43482U 18047G   25085.49345993  .00000457  00000+0  12998-3 0  9994
2 43482  86.4428 275.4217 0002252  81.5226 278.6230 14.43283851360554
IRIDIUM 160             
1 43569U 18061A   25085.49530379  .00000780  00000+0  27132-3 0  9995
2 43569  86.3938 243.8138 0002492  93.0656 267.0824 14.34218277349207
